[{"OBJECT_NAME":"GEESAT-2 02","OBJECT_ID":"2024-023B","EPOCH":"2026-03-09T22:42:12.929472","MEAN_MOTION":14.82898782,"ECCENTRICITY":0.0015318,"INCLINATION":49.9973,"RA_OF_ASC_NODE":93.7389,"ARG_OF_PERICENTER":336.8316,"MEAN_ANOMALY":23.193,"EPHEMERIS_TYPE":0,"CLASSIFICATION_TYPE":"U","NORAD_CAT_ID":58906,"ELEMENT_SET_NO":999,"REV_AT_EPOCH":11418,"BSTAR":0.00033923041,"MEAN_MOTION_DOT":2.557e-5,"MEAN_MOTION_DDOT":0},{"OBJECT_NAME":"KUIPER-00064","OBJECT_ID":"2025-134AA","EPOCH":"2026-03-09T18:18:15.594336","MEAN_MOTION":14.80156064,"ECCENTRICITY":4.286e-5,"INCLINATION":51.9031,"RA_OF_ASC_NODE":235.1956,"ARG_OF_PERICENTER":14.4693,"MEAN_ANOMALY":345.6281,"EPHEMERIS_TYPE":0,"CLASSIFICATION_TYPE":"U","NORAD_CAT_ID":64524,"ELEMENT_SET_NO":999,"REV_AT_EPOCH":4005,"BSTAR":0.00091932903,"MEAN_MOTION_DOT":6.831e-5,"MEAN_MOTION_DDOT":0}]
